{
  "type": "FeatureCollection",
  "features": [
    {
      "type": "Feature",
      "properties": {
        "norad_id": 38250,
        "name": "BEIDOU-2 M3 (C11)",
        "group": "beidou",
        "lat": 46.916172453652166,
        "lon": 84.48675500788073,
        "alt_km": 21584.629938929917,
        "timestamp": "2025-12-22T04:03:39.434328+00:00",
        "meta_object_name": "BEIDOU-2 M3 (C11)",
        "meta_object_id": "2012-018A",
        "meta_epoch": "2025-12-21T10:55:56.735328",
        "meta_mean_motion": 1.86230186,
        "meta_eccentricity": 0.0024104,
        "meta_inclination": 55.9128,
        "meta_ra_of_asc_node": 310.8648,
        "meta_arg_of_pericenter": 275.302,
        "meta_mean_anomaly": 84.4165,
        "meta_ephemeris_type": 0,
        "meta_classification_type": "U",
        "meta_norad_cat_id": 38250,
        "meta_element_set_no": 999,
        "meta_rev_at_epoch": 9263,
        "meta_bstar": 0,
        "meta_mean_motion_dot": -6.3e-07,
        "meta_mean_motion_ddot": 0,
        "tle_line1": "1 38250U 12018A   25355.45551777 -.00000063  00000+0  00000+0 0  9999",
        "tle_line2": "2 38250  55.9128 310.8648 0024104 275.3020  84.4165  1.86230186 92633"
      },
      "geometry": {
        "type": "Point",
        "coordinates": [
          84.48675500788073,
          46.916172453652166
        ]
      }
    },
    {
      "type": "Feature",
      "properties": {
        "norad_id": 38251,
        "name": "BEIDOU-2 M4 (C12)",
        "group": "beidou",
        "lat": 13.384777998376473,
        "lon": 120.74838525967168,
        "alt_km": 21545.01773092338,
        "timestamp": "2025-12-22T04:03:39.434340+00:00",
        "meta_object_name": "BEIDOU-2 M4 (C12)",
        "meta_object_id": "2012-018B",
        "meta_epoch": "2025-12-21T09:18:07.121952",
        "meta_mean_motion": 1.86229909,
        "meta_eccentricity": 0.0015253,
        "meta_inclination": 55.814,
        "meta_ra_of_asc_node": 310.0952,
        "meta_arg_of_pericenter": 279.1572,
        "meta_mean_anomaly": 80.6641,
        "meta_ephemeris_type": 0,
        "meta_classification_type": "U",
        "meta_norad_cat_id": 38251,
        "meta_element_set_no": 999,
        "meta_rev_at_epoch": 9263,
        "meta_bstar": 0,
        "meta_mean_motion_dot": -6.3e-07,
        "meta_mean_motion_ddot": 0,
        "tle_line1": "1 38251U 12018B   25355.38758243 -.00000063  00000+0  00000+0 0  9999",
        "tle_line2": "2 38251  55.8140 310.0952 0015253 279.1572  80.6641  1.86229909 92634"
      },
      "geometry": {
        "type": "Point",
        "coordinates": [
          120.74838525967168,
          13.384777998376473
        ]
      }
    },
    {
      "type": "Feature",
      "properties": {
        "norad_id": 38775,
        "name": "BEIDOU-2 M6 (C14)",
        "group": "beidou",
        "lat": -1.7716308630909061,
        "lon": 67.59651353345775,
        "alt_km": 21497.870151913623,
        "timestamp": "2025-12-22T04:03:39.434352+00:00",
        "meta_object_name": "BEIDOU-2 M6 (C14)",
        "meta_object_id": "2012-050B",
        "meta_epoch": "2025-12-21T02:21:46.465344",
        "meta_mean_motion": 1.86230924,
        "meta_eccentricity": 0.00113708,
        "meta_inclination": 56.3853,
        "meta_ra_of_asc_node": 68.7901,
        "meta_arg_of_pericenter": 343.4825,
        "meta_mean_anomaly": 16.5255,
        "meta_ephemeris_type": 0,
        "meta_classification_type": "U",
        "meta_norad_cat_id": 38775,
        "meta_element_set_no": 999,
        "meta_rev_at_epoch": 8999,
        "meta_bstar": 0,
        "meta_mean_motion_dot": -3.7e-07,
        "meta_mean_motion_ddot": 0,
        "tle_line1": "1 38775U 12050B   25355.09845446 -.00000037  00000+0  00000+0 0  9997",
        "tle_line2": "2 38775  56.3853  68.7901 0011370 343.4825  16.5255  1.86230924 89998"
      },
      "geometry": {
        "type": "Point",
        "coordinates": [
          67.59651353345775,
          -1.7716308630909061
        ]
      }
    },
    {
      "type": "Feature",
      "properties": {
        "norad_id": 38953,
        "name": "BEIDOU-2 G6 (C02)",
        "group": "beidou",
        "lat": 1.3186065005488397,
        "lon": -124.2093255175668,
        "alt_km": 35810.08463734216,
        "timestamp": "2025-12-22T04:03:39.434364+00:00",
        "meta_object_name": "BEIDOU-2 G6 (C02)",
        "meta_object_id": "2012-059A",
        "meta_epoch": "2025-12-21T20:26:44.535840",
        "meta_mean_motion": 1.00268615,
        "meta_eccentricity": 0.0008286,
        "meta_inclination": 3.971,
        "meta_ra_of_asc_node": 75.4173,
        "meta_arg_of_pericenter": 292.3121,
        "meta_mean_anomaly": 113.552,
        "meta_ephemeris_type": 0,
        "meta_classification_type": "U",
        "meta_norad_cat_id": 38953,
        "meta_element_set_no": 999,
        "meta_rev_at_epoch": 4813,
        "meta_bstar": 0,
        "meta_mean_motion_dot": -1.54e-06,
        "meta_mean_motion_ddot": 0,
        "tle_line1": "1 38953U 12059A   25355.85190435 -.00000154  00000+0  00000+0 0  9999",
        "tle_line2": "2 38953   3.9710  75.4173 0008286 292.3121 113.5520  1.00268615 48133"
      },
      "geometry": {
        "type": "Point",
        "coordinates": [
          -124.2093255175668,
          1.3186065005488397
        ]
      }
    },
    {
      "type": "Feature",
      "properties": {
        "norad_id": 40549,
        "name": "BEIDOU-3S IGSO-1S (C31)",
        "group": "beidou",
        "lat": -36.09900852914326,
        "lon": -100.84507608746964,
        "alt_km": 35850.83087773854,
        "timestamp": "2025-12-22T04:03:39.434375+00:00",
        "meta_object_name": "BEIDOU-3S IGSO-1S (C31)",
        "meta_object_id": "2015-019A",
        "meta_epoch": "2025-12-18T19:55:38.829792",
        "meta_mean_motion": 1.00292047,
        "meta_eccentricity": 0.0036331,
        "meta_inclination": 49.5404,
        "meta_ra_of_asc_node": 297.6395,
        "meta_arg_of_pericenter": 194.0028,
        "meta_mean_anomaly": 349.3621,
        "meta_ephemeris_type": 0,
        "meta_classification_type": "U",
        "meta_norad_cat_id": 40549,
        "meta_element_set_no": 999,
        "meta_rev_at_epoch": 3926,
        "meta_bstar": 0,
        "meta_mean_motion_dot": -1.83e-06,
        "meta_mean_motion_ddot": 0,
        "tle_line1": "1 40549U 15019A   25352.83031053 -.00000183  00000+0  00000+0 0  9999",
        "tle_line2": "2 40549  49.5404 297.6395 0036331 194.0028 349.3621  1.00292047 39264"
      },
      "geometry": {
        "type": "Point",
        "coordinates": [
          -100.84507608746964,
          -36.09900852914326
        ]
      }
    },
    {
      "type": "Feature",
      "properties": {
        "norad_id": 40748,
        "name": "BEIDOU-3S M2S (C58)",
        "group": "beidou",
        "lat": 21.481867985261626,
        "lon": -35.911621219449266,
        "alt_km": 21540.243208848184,
        "timestamp": "2025-12-22T04:03:39.434388+00:00",
        "meta_object_name": "BEIDOU-3S M2S (C58)",
        "meta_object_id": "2015-037A",
        "meta_epoch": "2025-12-21T01:20:10.923072",
        "meta_mean_motion": 1.86229523,
        "meta_eccentricity": 0.00119434,
        "meta_inclination": 55.0313,
        "meta_ra_of_asc_node": 308.1782,
        "meta_arg_of_pericenter": 270.3499,
        "meta_mean_anomaly": 89.5076,
        "meta_ephemeris_type": 0,
        "meta_classification_type": "U",
        "meta_norad_cat_id": 40748,
        "meta_element_set_no": 999,
        "meta_rev_at_epoch": 7080,
        "meta_bstar": 0,
        "meta_mean_motion_dot": -6.4e-07,
        "meta_mean_motion_ddot": 0,
        "tle_line1": "1 40748U 15037A   25355.05568198 -.00000064  00000+0  00000+0 0  9990",
        "tle_line2": "2 40748  55.0313 308.1782 0011943 270.3499  89.5076  1.86229523 70801"
      },
      "geometry": {
        "type": "Point",
        "coordinates": [
          -35.911621219449266,
          21.481867985261626
        ]
      }
    },
    {
      "type": "Feature",
      "properties": {
        "norad_id": 40749,
        "name": "BEIDOU-3S M1S (C57)",
        "group": "beidou",
        "lat": -40.92454177702125,
        "lon": 165.42379729522887,
        "alt_km": 21536.903010168437,
        "timestamp": "2025-12-22T04:03:39.434404+00:00",
        "meta_object_name": "BEIDOU-3S M1S (C57)",
        "meta_object_id": "2015-037B",
        "meta_epoch": "2025-12-21T06:50:01.998240",
        "meta_mean_motion": 1.86253999,
        "meta_eccentricity": 0.00036481,
        "meta_inclination": 55.0276,
        "meta_ra_of_asc_node": 308.16,
        "meta_arg_of_pericenter": 1.485,
        "meta_mean_anomaly": 358.5113,
        "meta_ephemeris_type": 0,
        "meta_classification_type": "U",
        "meta_norad_cat_id": 40749,
        "meta_element_set_no": 999,
        "meta_rev_at_epoch": 7081,
        "meta_bstar": 0,
        "meta_mean_motion_dot": -6.3e-07,
        "meta_mean_motion_ddot": 0,
        "tle_line1": "1 40749U 15037B   25355.28474535 -.00000063  00000+0  00000+0 0  9996",
        "tle_line2": "2 40749  55.0276 308.1600 0003648   1.4850 358.5113  1.86253999 70812"
      },
      "geometry": {
        "type": "Point",
        "coordinates": [
          165.42379729522887,
          -40.92454177702125
        ]
      }
    }
  ]
}